[{"OBJECT_NAME":"DELTA 2 R/B","OBJECT_ID":"1999-041E","EPOCH":"2026-03-04T16:46:03.547488","MEAN_MOTION":14.11821204,"ECCENTRICITY":0.0502346,"INCLINATION":51.7644,"RA_OF_ASC_NODE":321.2151,"ARG_OF_PERICENTER":333.7002,"MEAN_ANOMALY":23.9194,"EPHEMERIS_TYPE":0,"CLASSIFICATION_TYPE":"U","NORAD_CAT_ID":25876,"ELEMENT_SET_NO":999,"REV_AT_EPOCH":36232,"BSTAR":0.00032119,"MEAN_MOTION_DOT":1.762e-5,"MEAN_MOTION_DDOT":0},{"OBJECT_NAME":"HELIOS 1B","OBJECT_ID":"1999-064A","EPOCH":"2026-03-04T12:50:13.611264","MEAN_MOTION":14.87673368,"ECCENTRICITY":0.0002547,"INCLINATION":98.1701,"RA_OF_ASC_NODE":325.6266,"ARG_OF_PERICENTER":81.7315,"MEAN_ANOMALY":278.419,"EPHEMERIS_TYPE":0,"CLASSIFICATION_TYPE":"U","NORAD_CAT_ID":25977,"ELEMENT_SET_NO":999,"REV_AT_EPOCH":68449,"BSTAR":0.00033937,"MEAN_MOTION_DOT":3.032e-5,"MEAN_MOTION_DDOT":0},{"OBJECT_NAME":"TERRA","OBJECT_ID":"1999-068A","EPOCH":"2026-03-04T18:50:13.172352","MEAN_MOTION":14.61008869,"ECCENTRICITY":0.0002392,"INCLINATION":97.9602,"RA_OF_ASC_NODE":117.4068,"ARG_OF_PERICENTER":163.1129,"MEAN_ANOMALY":261.5498,"EPHEMERIS_TYPE":0,"CLASSIFICATION_TYPE":"U","NORAD_CAT_ID":25994,"ELEMENT_SET_NO":999,"REV_AT_EPOCH":39436,"BSTAR":0.00013779,"MEAN_MOTION_DOT":6.31e-6,"MEAN_MOTION_DDOT":0},{"OBJECT_NAME":"SL-16 R/B","OBJECT_ID":"2000-006B","EPOCH":"2026-03-04T12:02:24.190368","MEAN_MOTION":14.15824965,"ECCENTRICITY":0.0017152,"INCLINATION":71.0013,"RA_OF_ASC_NODE":108.7468,"ARG_OF_PERICENTER":197.3762,"MEAN_ANOMALY":162.6776,"EPHEMERIS_TYPE":0,"CLASSIFICATION_TYPE":"U","NORAD_CAT_ID":26070,"ELEMENT_SET_NO":999,"REV_AT_EPOCH":34782,"BSTAR":0.00012216079,"MEAN_MOTION_DOT":1.93e-6,"MEAN_MOTION_DDOT":0},{"OBJECT_NAME":"TITAN 4B R/B","OBJECT_ID":"2000-047B","EPOCH":"2026-03-04T19:02:27.109248","MEAN_MOTION":15.09505319,"ECCENTRICITY":0.0038095,"INCLINATION":67.9888,"RA_OF_ASC_NODE":54.2774,"ARG_OF_PERICENTER":41.1904,"MEAN_ANOMALY":319.2109,"EPHEMERIS_TYPE":0,"CLASSIFICATION_TYPE":"U","NORAD_CAT_ID":26474,"ELEMENT_SET_NO":999,"REV_AT_EPOCH":39217,"BSTAR":0.00038011,"MEAN_MOTION_DOT":6.081e-5,"MEAN_MOTION_DDOT":0},{"OBJECT_NAME":"ENVISAT","OBJECT_ID":"2002-009A","EPOCH":"2026-03-04T19:24:43.680960","MEAN_MOTION":14.39034859,"ECCENTRICITY":0.0001333,"INCLINATION":98.372,"RA_OF_ASC_NODE":17.5226,"ARG_OF_PERICENTER":84.5011,"MEAN_ANOMALY":308.0371,"EPHEMERIS_TYPE":0,"CLASSIFICATION_TYPE":"U","NORAD_CAT_ID":27386,"ELEMENT_SET_NO":999,"REV_AT_EPOCH":25847,"BSTAR":7.5827e-5,"MEAN_MOTION_DOT":1.91e-6,"MEAN_MOTION_DDOT":0},{"OBJECT_NAME":"IDEFIX & ARIANE 42P R/B","OBJECT_ID":"2002-021B","EPOCH":"2026-03-04T19:28:09.360480","MEAN_MOTION":14.31022119,"ECCENTRICITY":0.0011291,"INCLINATION":98.5866,"RA_OF_ASC_NODE":2.4759,"ARG_OF_PERICENTER":196.9068,"MEAN_ANOMALY":163.174,"EPHEMERIS_TYPE":0,"CLASSIFICATION_TYPE":"U","NORAD_CAT_ID":27422,"ELEMENT_SET_NO":999,"REV_AT_EPOCH":24332,"BSTAR":0.00016843,"MEAN_MOTION_DOT":4.0e-6,"MEAN_MOTION_DDOT":0},{"OBJECT_NAME":"AQUA","OBJECT_ID":"2002-022A","EPOCH":"2026-03-04T21:17:30.547104","MEAN_MOTION":14.61963487,"ECCENTRICITY":6.22e-5,"INCLINATION":98.4167,"RA_OF_ASC_NODE":31.1649,"ARG_OF_PERICENTER":61.1247,"MEAN_ANOMALY":325.7482,"EPHEMERIS_TYPE":0,"CLASSIFICATION_TYPE":"U","NORAD_CAT_ID":27424,"ELEMENT_SET_NO":999,"REV_AT_EPOCH":26803,"BSTAR":0.0003104,"MEAN_MOTION_DOT":1.506e-5,"MEAN_MOTION_DDOT":0},{"OBJECT_NAME":"CZ-4B R/B","OBJECT_ID":"2002-024C","EPOCH":"2026-03-04T13:51:18.587808","MEAN_MOTION":14.14546626,"ECCENTRICITY":0.0050717,"INCLINATION":98.885,"RA_OF_ASC_NODE":117.0095,"ARG_OF_PERICENTER":38.6002,"MEAN_ANOMALY":133.7598,"EPHEMERIS_TYPE":0,"CLASSIFICATION_TYPE":"U","NORAD_CAT_ID":27432,"ELEMENT_SET_NO":999,"REV_AT_EPOCH":22851,"BSTAR":6.085e-5,"MEAN_MOTION_DOT":7.4e-7,"MEAN_MOTION_DDOT":0},{"OBJECT_NAME":"MIDORI II (ADEOS-II)","OBJECT_ID":"2002-056A","EPOCH":"2026-03-04T11:36:00.334944","MEAN_MOTION":14.29280605,"ECCENTRICITY":0.0001781,"INCLINATION":98.7761,"RA_OF_ASC_NODE":21.9252,"ARG_OF_PERICENTER":50.0959,"MEAN_ANOMALY":310.0379,"EPHEMERIS_TYPE":0,"CLASSIFICATION_TYPE":"U","NORAD_CAT_ID":27597,"ELEMENT_SET_NO":999,"REV_AT_EPOCH":20955,"BSTAR":0.00019793252,"MEAN_MOTION_DOT":4.58e-6,"MEAN_MOTION_DDOT":0},{"OBJECT_NAME":"H-2A R/B","OBJECT_ID":"2002-056E","EPOCH":"2026-03-04T19:30:08.947584","MEAN_MOTION":14.33757065,"ECCENTRICITY":0.0070202,"INCLINATION":98.3194,"RA_OF_ASC_NODE":24.3641,"ARG_OF_PERICENTER":175.1553,"MEAN_ANOMALY":196.2594,"EPHEMERIS_TYPE":0,"CLASSIFICATION_TYPE":"U","NORAD_CAT_ID":27601,"ELEMENT_SET_NO":999,"REV_AT_EPOCH":21341,"BSTAR":0.00014576,"MEAN_MOTION_DOT":3.75e-6,"MEAN_MOTION_DDOT":0},{"OBJECT_NAME":"CZ-4B R/B","OBJECT_ID":"2003-049C","EPOCH":"2026-03-04T12:01:25.989600","MEAN_MOTION":14.55014781,"ECCENTRICITY":0.00470753,"INCLINATION":98.6874,"RA_OF_ASC_NODE":58.2023,"ARG_OF_PERICENTER":247.0745,"MEAN_ANOMALY":112.5479,"EPHEMERIS_TYPE":0,"CLASSIFICATION_TYPE":"U","NORAD_CAT_ID":28059,"ELEMENT_SET_NO":999,"REV_AT_EPOCH":18584,"BSTAR":0.00015405097,"MEAN_MOTION_DOT":6.21e-6,"MEAN_MOTION_DDOT":0},{"OBJECT_NAME":"CZ-2C R/B","OBJECT_ID":"2004-012C","EPOCH":"2026-03-04T04:06:31.903776","MEAN_MOTION":15.63762571,"ECCENTRICITY":0.00132118,"INCLINATION":97.7244,"RA_OF_ASC_NODE":127.9435,"ARG_OF_PERICENTER":331.6844,"MEAN_ANOMALY":28.3694,"EPHEMERIS_TYPE":0,"CLASSIFICATION_TYPE":"U","NORAD_CAT_ID":28222,"ELEMENT_SET_NO":999,"REV_AT_EPOCH":20341,"BSTAR":0.00075523906,"MEAN_MOTION_DOT":0.00071201,"MEAN_MOTION_DDOT":0},{"OBJECT_NAME":"SL-16 R/B","OBJECT_ID":"2004-021B","EPOCH":"2026-03-04T18:57:34.824096","MEAN_MOTION":14.14599381,"ECCENTRICITY":0.0003755,"INCLINATION":70.9991,"RA_OF_ASC_NODE":242.7753,"ARG_OF_PERICENTER":18.9321,"MEAN_ANOMALY":341.194,"EPHEMERIS_TYPE":0,"CLASSIFICATION_TYPE":"U","NORAD_CAT_ID":28353,"ELEMENT_SET_NO":999,"REV_AT_EPOCH":12214,"BSTAR":-6.426e-5,"MEAN_MOTION_DOT":-1.71e-6,"MEAN_MOTION_DDOT":0},{"OBJECT_NAME":"CZ-4B R/B","OBJECT_ID":"2004-035C","EPOCH":"2026-03-04T02:01:59.680992","MEAN_MOTION":15.28943125,"ECCENTRICITY":0.00315721,"INCLINATION":97.3503,"RA_OF_ASC_NODE":97.3943,"ARG_OF_PERICENTER":351.8851,"MEAN_ANOMALY":8.1874,"EPHEMERIS_TYPE":0,"CLASSIFICATION_TYPE":"U","NORAD_CAT_ID":28415,"ELEMENT_SET_NO":999,"REV_AT_EPOCH":17905,"BSTAR":0.00041410443,"MEAN_MOTION_DOT":0.00011746,"MEAN_MOTION_DDOT":0},{"OBJECT_NAME":"CZ-2C R/B","OBJECT_ID":"2004-046B","EPOCH":"2026-03-04T08:48:19.070496","MEAN_MOTION":14.26990151,"ECCENTRICITY":0.01395581,"INCLINATION":98.1987,"RA_OF_ASC_NODE":338.6819,"ARG_OF_PERICENTER":170.1424,"MEAN_ANOMALY":190.2547,"EPHEMERIS_TYPE":0,"CLASSIFICATION_TYPE":"U","NORAD_CAT_ID":28480,"ELEMENT_SET_NO":999,"REV_AT_EPOCH":10774,"BSTAR":7.9149141e-5,"MEAN_MOTION_DOT":1.73e-6,"MEAN_MOTION_DDOT":0},{"OBJECT_NAME":"ARIANE 5 R/B","OBJECT_ID":"2004-049H","EPOCH":"2026-03-04T10:41:13.596000","MEAN_MOTION":14.85255229,"ECCENTRICITY":0.00843157,"INCLINATION":98.2617,"RA_OF_ASC_NODE":231.7063,"ARG_OF_PERICENTER":8.9273,"MEAN_ANOMALY":351.3417,"EPHEMERIS_TYPE":0,"CLASSIFICATION_TYPE":"U","NORAD_CAT_ID":28499,"ELEMENT_SET_NO":999,"REV_AT_EPOCH":14501,"BSTAR":0.00013803463,"MEAN_MOTION_DOT":1.197e-5,"MEAN_MOTION_DDOT":0}]
